{
  "norad_id": 54656,
  "name": "ONEWEB-0590",
  "history": [
    {
      "epoch": "2026-03-28T21:47:07.411488Z",
      "apogee_km": 1178.8382866363472,
      "perigee_km": 1176.6671772807658,
      "latitude_deg": -1.626903686513088e-06,
      "longitude_deg": 106.86278855078628,
      "height_km": 1180.510780082333,
      "semi_major_axis_km": 7555.889731958557,
      "eccentricity": 0.00014367,
      "inclination_deg": 87.9182,
      "raan_deg": 259.9651,
      "arg_perigee_deg": 82.3628,
      "mean_anomaly_deg": 277.7669,
      "mean_motion_rev_day": 13.21826167
    },
    {
      "epoch": "2026-03-28T23:36:07.591680Z",
      "apogee_km": 1178.8358492268762,
      "perigee_km": 1176.6703311270321,
      "latitude_deg": -5.96846536149392e-05,
      "longitude_deg": 79.52232571693392,
      "height_km": 1180.5114171705477,
      "semi_major_axis_km": 7555.890090176954,
      "eccentricity": 0.0001433,
      "inclination_deg": 87.9181,
      "raan_deg": 259.95,
      "arg_perigee_deg": 82.3571,
      "mean_anomaly_deg": 277.7725,
      "mean_motion_rev_day": 13.21826073
    },
    {
      "epoch": "2026-03-30T04:40:10.257888Z",
      "apogee_km": 1178.8155255584925,
      "perigee_km": 1176.686729637422,
      "latitude_deg": -1.677881583451811e-05,
      "longitude_deg": 2.0754627965263777,
      "height_km": 1180.529110947827,
      "semi_major_axis_km": 7555.888127597957,
      "eccentricity": 0.00014087,
      "inclination_deg": 87.9181,
      "raan_deg": 259.708,
      "arg_perigee_deg": 83.2892,
      "mean_anomaly_deg": 276.8402,
      "mean_motion_rev_day": 13.21826588
    },
    {
      "epoch": "2026-03-30T11:56:10.946688Z",
      "apogee_km": 1178.8185985296323,
      "perigee_km": 1176.685722137453,
      "latitude_deg": -5.702983595158552e-05,
      "longitude_deg": -107.28634756280255,
      "height_km": 1180.5351682982164,
      "semi_major_axis_km": 7555.889160333542,
      "eccentricity": 0.00014114,
      "inclination_deg": 87.9181,
      "raan_deg": 259.6475,
      "arg_perigee_deg": 83.5738,
      "mean_anomaly_deg": 276.5556,
      "mean_motion_rev_day": 13.21826317
    },
    {
      "epoch": "2026-03-30T21:01:11.761248Z",
      "apogee_km": 1178.8110794877384,
      "perigee_km": 1176.6904440285225,
      "latitude_deg": 2.8090733340275553e-05,
      "longitude_deg": 116.01161341615217,
      "height_km": 1180.5388708403536,
      "semi_major_axis_km": 7555.88776175813,
      "eccentricity": 0.00014033,
      "inclination_deg": 87.9181,
      "raan_deg": 259.5719,
      "arg_perigee_deg": 83.8138,
      "mean_anomaly_deg": 276.3156,
      "mean_motion_rev_day": 13.21826684
    },
    {
      "epoch": "2026-03-31T20:38:13.937856Z",
      "apogee_km": 1178.7987081526626,
      "perigee_km": 1176.7057268394165,
      "latitude_deg": 1.9343512901648268e-05,
      "longitude_deg": 120.58591838385384,
      "height_km": 1180.5526637143857,
      "semi_major_axis_km": 7555.889217496039,
      "eccentricity": 0.0001385,
      "inclination_deg": 87.9181,
      "raan_deg": 259.3752,
      "arg_perigee_deg": 84.4091,
      "mean_anomaly_deg": 275.7201,
      "mean_motion_rev_day": 13.21826302
    },
    {
      "epoch": "2026-04-01T16:37:15.735072Z",
      "apogee_km": 1178.8024441722791,
      "perigee_km": 1176.7019069814696,
      "latitude_deg": 3.594218728110549e-05,
      "longitude_deg": 179.8417247939934,
      "height_km": 1180.5715930415183,
      "semi_major_axis_km": 7555.889175576875,
      "eccentricity": 0.000139,
      "inclination_deg": 87.9183,
      "raan_deg": 259.2092,
      "arg_perigee_deg": 85.4688,
      "mean_anomaly_deg": 274.6605,
      "mean_motion_rev_day": 13.21826313
    },
    {
      "epoch": "2026-04-02T18:03:22.207104Z",
      "apogee_km": 1179.109448457496,
      "perigee_km": 1176.6325890289527,
      "latitude_deg": 1.7936986178960087e-05,
      "longitude_deg": 157.05797452977973,
      "height_km": 1180.6569176436992,
      "semi_major_axis_km": 7556.008018743224,
      "eccentricity": 0.0001639,
      "inclination_deg": 87.9184,
      "raan_deg": 258.997,
      "arg_perigee_deg": 84.6245,
      "mean_anomaly_deg": 275.5076,
      "mean_motion_rev_day": 13.21795128
    },
    {
      "epoch": "2026-04-02T21:41:23.184384Z",
      "apogee_km": 1178.9931705992603,
      "perigee_km": 1176.7766871266476,
      "latitude_deg": 5.9829263978964324e-05,
      "longitude_deg": 102.3746773025746,
      "height_km": 1180.701307891032,
      "semi_major_axis_km": 7556.021928862954,
      "eccentricity": 0.00014667,
      "inclination_deg": 87.9196,
      "raan_deg": 258.967,
      "arg_perigee_deg": 85.5579,
      "mean_anomaly_deg": 274.5723,
      "mean_motion_rev_day": 13.21791478
    },
    {
      "epoch": "2026-04-03T17:40:27.030144Z",
      "apogee_km": 1179.005837324372,
      "perigee_km": 1176.7904078264319,
      "latitude_deg": 1.8309957592007798e-05,
      "longitude_deg": 161.6218216033794,
      "height_km": 1180.8235354951757,
      "semi_major_axis_km": 7556.035122575401,
      "eccentricity": 0.0001466,
      "inclination_deg": 87.9201,
      "raan_deg": 258.8009,
      "arg_perigee_deg": 91.199,
      "mean_anomaly_deg": 268.9312,
      "mean_motion_rev_day": 13.21788016
    },
    {
      "epoch": "2026-04-04T11:50:31.596864Z",
      "apogee_km": 1179.0179158993778,
      "perigee_km": 1176.9044752340778,
      "latitude_deg": -6.889531517039495e-07,
      "longitude_deg": -111.7946381579703,
      "height_km": 1180.8284940395517,
      "semi_major_axis_km": 7556.098195566728,
      "eccentricity": 0.00013985,
      "inclination_deg": 87.9186,
      "raan_deg": 258.6496,
      "arg_perigee_deg": 88.1015,
      "mean_anomaly_deg": 272.0279,
      "mean_motion_rev_day": 13.21771466
    },
    {
      "epoch": "2026-04-05T11:27:37.519776Z",
      "apogee_km": 1179.0171676078244,
      "perigee_km": 1176.9171751365166,
      "latitude_deg": -5.475993186423235e-06,
      "longitude_deg": -107.23568807198633,
      "height_km": 1180.8513297266325,
      "semi_major_axis_km": 7556.104171372171,
      "eccentricity": 0.00013896,
      "inclination_deg": 87.9188,
      "raan_deg": 258.4532,
      "arg_perigee_deg": 89.0087,
      "mean_anomaly_deg": 271.1206,
      "mean_motion_rev_day": 13.21769898
    },
    {
      "epoch": "2026-04-05T20:32:39.756480Z",
      "apogee_km": 1179.0055173039236,
      "perigee_km": 1176.9290998399274,
      "latitude_deg": 7.349156058601402e-05,
      "longitude_deg": 116.05622974441273,
      "height_km": 1180.852256514166,
      "semi_major_axis_km": 7556.104308571925,
      "eccentricity": 0.0001374,
      "inclination_deg": 87.9188,
      "raan_deg": 258.3775,
      "arg_perigee_deg": 89.0402,
      "mean_anomaly_deg": 271.089,
      "mean_motion_rev_day": 13.21769862
    },
    {
      "epoch": "2026-04-06T00:10:40.655136Z",
      "apogee_km": 1179.0062724603522,
      "perigee_km": 1176.9290992822062,
      "latitude_deg": -3.323547390902843e-05,
      "longitude_deg": 61.37295525970858,
      "height_km": 1180.8543353555624,
      "semi_major_axis_km": 7556.104685871279,
      "eccentricity": 0.00013745,
      "inclination_deg": 87.9188,
      "raan_deg": 258.3472,
      "arg_perigee_deg": 89.1336,
      "mean_anomaly_deg": 270.9955,
      "mean_motion_rev_day": 13.21769763
    },
    {
      "epoch": "2026-04-07T10:41:49.209216Z",
      "apogee_km": 1179.0047221769437,
      "perigee_km": 1176.9372199139061,
      "latitude_deg": -6.137001839561748e-05,
      "longitude_deg": -98.11713824097993,
      "height_km": 1180.885621197553,
      "semi_major_axis_km": 7556.107971045424,
      "eccentricity": 0.00013681,
      "inclination_deg": 87.919,
      "raan_deg": 258.0604,
      "arg_perigee_deg": 90.6804,
      "mean_anomaly_deg": 269.4486,
      "mean_motion_rev_day": 13.21768901
    }
  ]
}